CCSDS_OMM_VERS = 2.0
CREATION_DATE  = 
ORIGINATOR     = 

OBJECT_NAME    = STARLINK-34774
OBJECT_ID      = 2025-263A
CENTER_NAME    = EARTH
REF_FRAME      = TEME
TIME_SYSTEM    = UTC
MEAN_ELEMENT_THEORY = SGP/SGP4

EPOCH          = 2025-12-10T20:00:01.000224
MEAN_MOTION    = 15.41497755
ECCENTRICITY   = .0001803
INCLINATION    = 43.0008
RA_OF_ASC_NODE = 136.3995
ARG_OF_PERICENTER = 268.9064
MEAN_ANOMALY   = 127.9674

EPHEMERIS_TYPE = 0
CLASSIFICATION_TYPE = U
NORAD_CAT_ID   = 66485
ELEMENT_SET_NO = 999
REV_AT_EPOCH   = 532
BSTAR          = -.29283E-1
MEAN_MOTION_DOT = -.1146986E-1
MEAN_MOTION_DDOT = 0

CCSDS_OMM_VERS = 2.0
CREATION_DATE  = 
ORIGINATOR     = 

OBJECT_NAME    = STARLINK-34844
OBJECT_ID      = 2025-263B
CENTER_NAME    = EARTH
REF_FRAME      = TEME
TIME_SYSTEM    = UTC
MEAN_ELEMENT_THEORY = SGP/SGP4

EPOCH          = 2025-12-10T20:00:01.000224
MEAN_MOTION    = 15.50603450
ECCENTRICITY   = .0001572
INCLINATION    = 43.0007
RA_OF_ASC_NODE = 136.3189
ARG_OF_PERICENTER = 267.2220
MEAN_ANOMALY   = 162.2544

EPHEMERIS_TYPE = 0
CLASSIFICATION_TYPE = U
NORAD_CAT_ID   = 66486
ELEMENT_SET_NO = 999
REV_AT_EPOCH   = 528
BSTAR          = -.13651E-2
MEAN_MOTION_DOT = -.79684E-3
MEAN_MOTION_DDOT = 0

CCSDS_OMM_VERS = 2.0
CREATION_DATE  = 
ORIGINATOR     = 

OBJECT_NAME    = STARLINK-34733
OBJECT_ID      = 2025-263C
CENTER_NAME    = EARTH
REF_FRAME      = TEME
TIME_SYSTEM    = UTC
MEAN_ELEMENT_THEORY = SGP/SGP4

EPOCH          = 2025-12-10T14:00:03.000384
MEAN_MOTION    = 15.50589273
ECCENTRICITY   = .00014872
INCLINATION    = 43.0006
RA_OF_ASC_NODE = 137.7771
ARG_OF_PERICENTER = 260.4190
MEAN_ANOMALY   = 213.9101

EPHEMERIS_TYPE = 0
CLASSIFICATION_TYPE = U
NORAD_CAT_ID   = 66487
ELEMENT_SET_NO = 999
REV_AT_EPOCH   = 528
BSTAR          = -.33566863E-3
MEAN_MOTION_DOT = -.1999E-3
MEAN_MOTION_DDOT = 0

CCSDS_OMM_VERS = 2.0
CREATION_DATE  = 
ORIGINATOR     = 

OBJECT_NAME    = STARLINK-35515
OBJECT_ID      = 2025-263D
CENTER_NAME    = EARTH
REF_FRAME      = TEME
TIME_SYSTEM    = UTC
MEAN_ELEMENT_THEORY = SGP/SGP4

EPOCH          = 2025-12-10T20:00:01.000224
MEAN_MOTION    = 15.50607201
ECCENTRICITY   = .0001596
INCLINATION    = 43.0007
RA_OF_ASC_NODE = 136.3097
ARG_OF_PERICENTER = 269.9428
MEAN_ANOMALY   = 163.3640

EPHEMERIS_TYPE = 0
CLASSIFICATION_TYPE = U
NORAD_CAT_ID   = 66488
ELEMENT_SET_NO = 999
REV_AT_EPOCH   = 532
BSTAR          = -.14371E-2
MEAN_MOTION_DOT = -.83837E-3
MEAN_MOTION_DDOT = 0

CCSDS_OMM_VERS = 2.0
CREATION_DATE  = 
ORIGINATOR     = 

OBJECT_NAME    = STARLINK-35696
OBJECT_ID      = 2025-263E
CENTER_NAME    = EARTH
REF_FRAME      = TEME
TIME_SYSTEM    = UTC
MEAN_ELEMENT_THEORY = SGP/SGP4

EPOCH          = 2025-12-10T20:00:01.000224
MEAN_MOTION    = 15.50609462
ECCENTRICITY   = .0001541
INCLINATION    = 43.0007
RA_OF_ASC_NODE = 136.3046
ARG_OF_PERICENTER = 271.6543
MEAN_ANOMALY   = 163.5757

EPHEMERIS_TYPE = 0
CLASSIFICATION_TYPE = U
NORAD_CAT_ID   = 66489
ELEMENT_SET_NO = 999
REV_AT_EPOCH   = 532
BSTAR          = -.16007E-2
MEAN_MOTION_DOT = -.93239E-3
MEAN_MOTION_DDOT = 0

CCSDS_OMM_VERS = 2.0
CREATION_DATE  = 
ORIGINATOR     = 

OBJECT_NAME    = STARLINK-35693
OBJECT_ID      = 2025-263F
CENTER_NAME    = EARTH
REF_FRAME      = TEME
TIME_SYSTEM    = UTC
MEAN_ELEMENT_THEORY = SGP/SGP4

EPOCH          = 2025-12-10T20:00:01.000224
MEAN_MOTION    = 15.46879799
ECCENTRICITY   = .0001364
INCLINATION    = 43.0006
RA_OF_ASC_NODE = 136.3126
ARG_OF_PERICENTER = 282.9001
MEAN_ANOMALY   = 148.8289

EPHEMERIS_TYPE = 0
CLASSIFICATION_TYPE = U
NORAD_CAT_ID   = 66490
ELEMENT_SET_NO = 999
REV_AT_EPOCH   = 532
BSTAR          = -.4438E-1
MEAN_MOTION_DOT = -.2035529E-1
MEAN_MOTION_DDOT = 0

CCSDS_OMM_VERS = 2.0
CREATION_DATE  = 
ORIGINATOR     = 

OBJECT_NAME    = STARLINK-35663
OBJECT_ID      = 2025-263G
CENTER_NAME    = EARTH
REF_FRAME      = TEME
TIME_SYSTEM    = UTC
MEAN_ELEMENT_THEORY = SGP/SGP4

EPOCH          = 2025-12-10T20:00:01.000224
MEAN_MOTION    = 15.50605197
ECCENTRICITY   = .0001563
INCLINATION    = 43.0007
RA_OF_ASC_NODE = 136.2902
ARG_OF_PERICENTER = 268.6772
MEAN_ANOMALY   = 172.3045

EPHEMERIS_TYPE = 0
CLASSIFICATION_TYPE = U
NORAD_CAT_ID   = 66491
ELEMENT_SET_NO = 999
REV_AT_EPOCH   = 532
BSTAR          = -.14912E-2
MEAN_MOTION_DOT = -.86941E-3
MEAN_MOTION_DDOT = 0

CCSDS_OMM_VERS = 2.0
CREATION_DATE  = 
ORIGINATOR     = 

OBJECT_NAME    = STARLINK-35673
OBJECT_ID      = 2025-263H
CENTER_NAME    = EARTH
REF_FRAME      = TEME
TIME_SYSTEM    = UTC
MEAN_ELEMENT_THEORY = SGP/SGP4

EPOCH          = 2025-12-10T20:00:01.000224
MEAN_MOTION    = 15.43193349
ECCENTRICITY   = .0001415
INCLINATION    = 43.0009
RA_OF_ASC_NODE = 136.3421
ARG_OF_PERICENTER = 290.3804
MEAN_ANOMALY   = 129.6118

EPHEMERIS_TYPE = 0
CLASSIFICATION_TYPE = U
NORAD_CAT_ID   = 66492
ELEMENT_SET_NO = 999
REV_AT_EPOCH   = 532
BSTAR          = -.56905E-1
MEAN_MOTION_DOT = -.2308305E-1
MEAN_MOTION_DDOT = 0

CCSDS_OMM_VERS = 2.0
CREATION_DATE  = 
ORIGINATOR     = 

OBJECT_NAME    = STARLINK-35597
OBJECT_ID      = 2025-263J
CENTER_NAME    = EARTH
REF_FRAME      = TEME
TIME_SYSTEM    = UTC
MEAN_ELEMENT_THEORY = SGP/SGP4

EPOCH          = 2025-12-10T20:00:01.000224
MEAN_MOTION    = 15.50601374
ECCENTRICITY   = .0001524
INCLINATION    = 43.0007
RA_OF_ASC_NODE = 136.2799
ARG_OF_PERICENTER = 268.6373
MEAN_ANOMALY   = 176.1768

EPHEMERIS_TYPE = 0
CLASSIFICATION_TYPE = U
NORAD_CAT_ID   = 66493
ELEMENT_SET_NO = 999
REV_AT_EPOCH   = 533
BSTAR          = -.13098E-2
MEAN_MOTION_DOT = -.76498E-3
MEAN_MOTION_DDOT = 0

CCSDS_OMM_VERS = 2.0
CREATION_DATE  = 
ORIGINATOR     = 

OBJECT_NAME    = STARLINK-35689
OBJECT_ID      = 2025-263K
CENTER_NAME    = EARTH
REF_FRAME      = TEME
TIME_SYSTEM    = UTC
MEAN_ELEMENT_THEORY = SGP/SGP4

EPOCH          = 2025-12-10T20:00:01.000224
MEAN_MOTION    = 15.50616114
ECCENTRICITY   = .0001516
INCLINATION    = 43.0007
RA_OF_ASC_NODE = 136.2953
ARG_OF_PERICENTER = 268.5097
MEAN_ANOMALY   = 170.5520

EPHEMERIS_TYPE = 0
CLASSIFICATION_TYPE = U
NORAD_CAT_ID   = 66494
ELEMENT_SET_NO = 999
REV_AT_EPOCH   = 533
BSTAR          = -.17843E-2
MEAN_MOTION_DOT = -.103779E-2
MEAN_MOTION_DDOT = 0

CCSDS_OMM_VERS = 2.0
CREATION_DATE  = 
ORIGINATOR     = 

OBJECT_NAME    = STARLINK-35832
OBJECT_ID      = 2025-263L
CENTER_NAME    = EARTH
REF_FRAME      = TEME
TIME_SYSTEM    = UTC
MEAN_ELEMENT_THEORY = SGP/SGP4

EPOCH          = 2025-12-10T20:00:01.000224
MEAN_MOTION    = 15.50600518
ECCENTRICITY   = .0001562
INCLINATION    = 43.0008
RA_OF_ASC_NODE = 136.2754
ARG_OF_PERICENTER = 268.2198
MEAN_ANOMALY   = 178.5140

EPHEMERIS_TYPE = 0
CLASSIFICATION_TYPE = U
NORAD_CAT_ID   = 66495
ELEMENT_SET_NO = 999
REV_AT_EPOCH   = 533
BSTAR          = -.13243E-2
MEAN_MOTION_DOT = -.77329E-3
MEAN_MOTION_DDOT = 0

CCSDS_OMM_VERS = 2.0
CREATION_DATE  = 
ORIGINATOR     = 

OBJECT_NAME    = STARLINK-35909
OBJECT_ID      = 2025-263M
CENTER_NAME    = EARTH
REF_FRAME      = TEME
TIME_SYSTEM    = UTC
MEAN_ELEMENT_THEORY = SGP/SGP4

EPOCH          = 2025-12-10T20:00:01.000224
MEAN_MOTION    = 15.50612100
ECCENTRICITY   = .0001521
INCLINATION    = 43.0007
RA_OF_ASC_NODE = 136.2706
ARG_OF_PERICENTER = 273.2977
MEAN_ANOMALY   = 175.3510

EPHEMERIS_TYPE = 0
CLASSIFICATION_TYPE = U
NORAD_CAT_ID   = 66496
ELEMENT_SET_NO = 999
REV_AT_EPOCH   = 533
BSTAR          = -.1696E-2
MEAN_MOTION_DOT = -.98713E-3
MEAN_MOTION_DDOT = 0

