STARLINK-34774          
1 66485U 25263A   25344.83334491 -.01146986  00000+0 -29283-1 0  9991
2 66485  43.0008 136.3995 0001803 268.9064 127.9674 15.41497755  5323
STARLINK-34844          
1 66486U 25263B   25344.83334491 -.00079684  00000+0 -13651-2 0  9994
2 66486  43.0007 136.3189 0001572 267.2220 162.2544 15.50603450  5281
STARLINK-34733          
1 66487U 25263C   25344.58336806 -.00019990  00000+0 -33567-3 0  9992
2 66487  43.0006 137.7771 0001487 260.4190 213.9101 15.50589273  5288
STARLINK-35515          
1 66488U 25263D   25344.83334491 -.00083837  00000+0 -14371-2 0  9991
2 66488  43.0007 136.3097 0001596 269.9428 163.3640 15.50607201  5328
STARLINK-35696          
1 66489U 25263E   25344.83334491 -.00093239  00000+0 -16007-2 0  9997
2 66489  43.0007 136.3046 0001541 271.6543 163.5757 15.50609462  5323
STARLINK-35693          
1 66490U 25263F   25344.83334491 -.02035529  00000+0 -44380-1 0  9993
2 66490  43.0006 136.3126 0001364 282.9001 148.8289 15.46879799  5323
STARLINK-35663          
1 66491U 25263G   25344.83334491 -.00086941  00000+0 -14912-2 0  9995
2 66491  43.0007 136.2902 0001563 268.6772 172.3045 15.50605197  5329
STARLINK-35673          
1 66492U 25263H   25344.83334491 -.02308305  00000+0 -56905-1 0  9996
2 66492  43.0009 136.3421 0001415 290.3804 129.6118 15.43193349  5322
STARLINK-35597          
1 66493U 25263J   25344.83334491 -.00076498  00000+0 -13098-2 0  9997
2 66493  43.0007 136.2799 0001524 268.6373 176.1768 15.50601374  5337
STARLINK-35689          
1 66494U 25263K   25344.83334491 -.00103779  00000+0 -17843-2 0  9993
2 66494  43.0007 136.2953 0001516 268.5097 170.5520 15.50616114  5335
STARLINK-35832          
1 66495U 25263L   25344.83334491 -.00077329  00000+0 -13243-2 0  9995
2 66495  43.0008 136.2754 0001562 268.2198 178.5140 15.50600518  5333
STARLINK-35909          
1 66496U 25263M   25344.83334491 -.00098713  00000+0 -16960-2 0  9995
2 66496  43.0007 136.2706 0001521 273.2977 175.3510 15.50612100  5332
